ORBCOMM FM05            
1 25117U 97084F   24148.08750524  .00002367  00000+0  74503-3 0  9993
2 25117  45.0157  57.4832 0002522  68.6683 291.4436 14.42838983385721
ORBCOMM FM06            
1 25118U 97084G   24148.14191602  .00002504  00000+0  78476-3 0  9993
2 25118  45.0150  57.3829 0001695  75.3828  64.4134 14.42894544385724
ORBCOMM FM07            
1 25119U 97084H   24147.83027449  .00002120  00000+0  67218-3 0  9992
2 25119  45.0146  59.4173 0003305  60.0259 300.0919 14.42807143385677
ORBCOMM FM04            
1 25159U 98007C   24147.70933441  .00001471  00000+0  58427-3 0  9996
2 25159 107.9691  65.8459 0042731 203.3863 156.5332 14.32519143368832
ORBCOMM FM18            
1 25414U 98046B   24147.83587391  .00001637  00000+0  60612-3 0  9999
2 25414  44.9917 205.1400 0003244 169.6255 190.4660 14.36019357348663
ORBCOMM FM19            
1 25415U 98046C   24148.15712875  .00001453  00000+0  54536-3 0  9997
2 25415  44.9926 205.0558 0002027 179.0788 208.7204 14.35857783348873
